[{"OBJECT_NAME":"GONETS-M 12","OBJECT_ID":"2015-020B","EPOCH":"2026-03-09T23:17:47.294592","MEAN_MOTION":12.42888862,"ECCENTRICITY":0.00147005,"INCLINATION":82.484,"RA_OF_ASC_NODE":93.9182,"ARG_OF_PERICENTER":198.7155,"MEAN_ANOMALY":161.3386,"EPHEMERIS_TYPE":0,"CLASSIFICATION_TYPE":"U","NORAD_CAT_ID":40553,"ELEMENT_SET_NO":999,"REV_AT_EPOCH":49640,"BSTAR":0.00092565074,"MEAN_MOTION_DOT":1.38e-6,"MEAN_MOTION_DDOT":0},{"OBJECT_NAME":"COSMOS 1823 DEB","OBJECT_ID":"1987-020EJ","EPOCH":"2026-02-18T03:23:15.239040","MEAN_MOTION":12.41803594,"ECCENTRICITY":0.00372367,"INCLINATION":73.7078,"RA_OF_ASC_NODE":342.0083,"ARG_OF_PERICENTER":266.0475,"MEAN_ANOMALY":93.6312,"EPHEMERIS_TYPE":0,"CLASSIFICATION_TYPE":"U","NORAD_CAT_ID":39810,"ELEMENT_SET_NO":999,"REV_AT_EPOCH":53262,"BSTAR":0.00041745807,"MEAN_MOTION_DOT":4.0e-7,"MEAN_MOTION_DDOT":0}]
